[{"OBJECT_NAME":"STARLINK-31179","OBJECT_ID":"2024-005Y","EPOCH":"2026-03-09T19:25:42.648960","MEAN_MOTION":15.26735865,"ECCENTRICITY":7.174e-5,"INCLINATION":43.0036,"RA_OF_ASC_NODE":218.9351,"ARG_OF_PERICENTER":263.6598,"MEAN_ANOMALY":96.4172,"EPHEMERIS_TYPE":0,"CLASSIFICATION_TYPE":"U","NORAD_CAT_ID":58750,"ELEMENT_SET_NO":999,"REV_AT_EPOCH":12046,"BSTAR":5.5251005e-5,"MEAN_MOTION_DOT":1.223e-5,"MEAN_MOTION_DDOT":0},{"OBJECT_NAME":"TIANHUI 7","OBJECT_ID":"2025-314A","EPOCH":"2026-02-21T16:04:56.557920","MEAN_MOTION":15.26178925,"ECCENTRICITY":0.00016912,"INCLINATION":97.4117,"RA_OF_ASC_NODE":129.4508,"ARG_OF_PERICENTER":83.9579,"MEAN_ANOMALY":276.1853,"EPHEMERIS_TYPE":0,"CLASSIFICATION_TYPE":"U","NORAD_CAT_ID":67300,"ELEMENT_SET_NO":999,"REV_AT_EPOCH":817,"BSTAR":0.00025701477,"MEAN_MOTION_DOT":6.572e-5,"MEAN_MOTION_DDOT":0}]
