STARLINK-31179          
1 58750U 24005Y   26068.80952140  .00001223  00000+0  55251-4 0  9996
2 58750  43.0036 218.9351 0000717 263.6598  96.4172 15.26735865120466
TIANHUI 7               
1 67300U 25314A   26052.67009905  .00006572  00000+0  25701-3 0  9999
2 67300  97.4117 129.4508 0001691  83.9579 276.1853 15.26178925  8178
